ONEWEB-0228             
1 48780U 21045P   24174.55605241  .00000162  00000+0  39944-3 0  9995
2 48780  87.9030  43.3808 0001968  81.2997 278.8356 13.15068440149052
